IRIDIUM 166             
1 43570U 18061B   25229.59266802  .00000167  00000+0  52408-4 0  9999
2 43570  86.4024 183.5992 0002436  91.0088 269.1387 14.34218601369883
IRIDIUM 158             
1 43571U 18061C   25229.28188023  .00000098  00000+0  28006-4 0  9994
2 43571  86.4024 183.7386 0002118  86.1880 273.9558 14.34217614369803
IRIDIUM 165             
1 43572U 18061D   25229.58632443  .00000169  00000+0  53187-4 0  9995
2 43572  86.4024 183.6519 0002431  86.8578 273.2896 14.34217658369873
IRIDIUM 155             
1 43573U 18061E   25229.33896371  .00000085  00000+0  23216-4 0  9998
2 43573  86.4022 183.6397 0002090  91.8945 268.2490 14.34217688369801
IRIDIUM 154             
1 43574U 18061F   25229.59901068  .00000043  00000+0  84221-5 0  9995
2 43574  86.4025 183.6493 0002274  85.8545 274.2910 14.34217746369893
IRIDIUM 163             
1 43575U 18061G   25229.57998170 -.00000043  00000+0 -22337-4 0  9995
2 43575  86.4025 183.5828 0002009  83.3169 276.8256 14.34217740369868
IRIDIUM 156             
1 43576U 18061H   25229.34530673  .00000061  00000+0  14825-4 0  9992
2 43576  86.4023 183.6873 0002202  93.9366 266.2082 14.34217926369821
IRIDIUM 164             
1 43577U 18061J   25229.32627951  .00000035  00000+0  55227-5 0  9990
2 43577  86.4024 183.7306 0002470  87.1361 273.0118 14.34217808369861
